QZS-1R                  
1 49336U 21096A   23331.70725272 -.00000264  00000+0  00000+0 0  9998
2 49336  35.5311  93.6244 0751535 270.7910  91.3048  1.00263789  7665
